{"type":"FeatureCollection","features":[{"type":"Feature","id":null,"properties":{},"geometry":{"type":"MultiLineString","coordinates":[[[-80.07622123514629,40.41774582296537],[-80.0759648,40.4179313],[-80.0755978,40.4185315],[-80.0755205,40.4185922],[-80.0753125,40.4190356],[-80.0749342,40.4196143],[-80.074716,40.4202431],[-80.07478578800875,40.420368410275735]],[[-80.0749529354119,40.42066853758343],[-80.0749606,40.4206823],[-80.07498223087867,40.420689288539066]],[[-80.07567824449268,40.42081858076221],[-80.0756901,40.4208195],[-80.0774541,40.4204245],[-80.079029,40.4202053],[-80.0799302,40.4201269],[-80.0813515,40.4202492],[-80.0817022,40.4202449],[-80.08251481352274,40.420117994516104]],[[-80.08447766870698,40.42051522628943],[-80.0844796,40.4205178],[-80.0845637,40.4206464],[-80.0851573,40.4217147],[-80.08570322039317,40.42300017854581]]]}},{"type":"Feature","id":null,"properties":{},"geometry":{"type":"LineString","coordinates":[[-80.0272498,40.4306133],[-80.0275622,40.430783],[-80.0277031,40.4308672]]}},{"type":"Feature","id":null,"properties":{},"geometry":{"type":"LineString","coordinates":[[-80.0277031,40.4308672],[-80.0279447,40.4309743]]}},{"type":"Feature","id":null,"properties":{},"geometry":{"type":"LineString","coordinates":[[-80.0279447,40.4309743],[-80.02865,40.4313677],[-80.0293707,40.4321795],[-80.0301539,40.4329553],[-80.0301975,40.4331911],[-80.030567,40.4335841],[-80.0315326,40.4340986],[-80.0317525,40.434413],[-80.0317525,40.4344905],[-80.0318974,40.434613],[-80.0320315,40.4349233],[-80.0325607,40.4351528],[-80.033003,40.4355422],[-80.0332277,40.43574],[-80.0334316,40.4358951],[-80.0334674,40.4359752],[-80.0335799,40.4362267],[-80.0337035,40.436739],[-80.0337558,40.4368783],[-80.0339441,40.4372102],[-80.0339842,40.4373357],[-80.0339959,40.4374661],[-80.0339928,40.4378077],[-80.0339812,40.4379088],[-80.0339563,40.4379943],[-80.0337702,40.4384172],[-80.0337298,40.4385508],[-80.0337177,40.4386576],[-80.0337598,40.4391942],[-80.0337491,40.4394309],[-80.0337268,40.4395947],[-80.0336847,40.4396958],[-80.0334223,40.4400255],[-80.0333238,40.440098],[-80.0324273,40.4405538],[-80.0322556,40.4406657],[-80.0321406,40.440781],[-80.031891,40.4411489],[-80.0317676,40.4413794],[-80.0316617,40.4416884],[-80.0315815,40.4419814],[-80.0315294,40.4426016],[-80.0314913,40.4426963],[-80.0314333,40.4427647],[-80.0313391,40.44282],[-80.0305274,40.4432381],[-80.0303207,40.4433698],[-80.0301024,40.4434747],[-80.0298695,40.4435575]]}},{"type":"Feature","id":null,"properties":{},"geometry":{"type":"MultiLineString","coordinates":[[[-80.08073718827704,40.439770326820735],[-80.08122461838326,40.439887625947485]],[[-80.08281886944961,40.44041021376402],[-80.08289959915471,40.440454990145334]],[[-80.08420668503692,40.44195529100226],[-80.0842075,40.4419563]]]}},{"type":"Feature","id":null,"properties":{},"geometry":{"type":"LineString","coordinates":[[-80.0298695,40.4435575],[-80.0296155,40.443654]]}},{"type":"Feature","id":null,"properties":{},"geometry":{"type":"LineString","coordinates":[[-80.0296155,40.443654],[-80.0293114,40.4437636]]}},{"type":"Feature","id":null,"properties":{},"geometry":{"type":"LineString","coordinates":[[-80.0293114,40.4437636],[-80.0284873,40.44418],[-80.0280235,40.4443696]]}},{"type":"Feature","id":null,"properties":{},"geometry":{"type":"LineString","coordinates":[[-80.0280235,40.4443696],[-80.0278179,40.4444352]]}},{"type":"Feature","id":null,"properties":{},"geometry":{"type":"LineString","coordinates":[[-80.0278179,40.4444352],[-80.0275536,40.4447415]]}},{"type":"Feature","id":null,"properties":{},"geometry":{"type":"LineString","coordinates":[[-79.9353907,40.3975813],[-79.9378269,40.3971898]]}},{"type":"Feature","id":null,"properties":{},"geometry":{"type":"LineString","coordinates":[[-79.9338286,40.3978289],[-79.9353907,40.3975813]]}},{"type":"Feature","id":null,"properties":{},"geometry":{"type":"MultiLineString","coordinates":[[[-79.9195987,40.4097728],[-79.91962867477307,40.409738054246596]],[[-79.92311075615737,40.40570174208339],[-79.9235964,40.4051388],[-79.9266763,40.4015683],[-79.9277532307918,40.400469800679815]],[[-79.9283971809926,40.39991343804982],[-79.9288261,40.3995981],[-79.92951121087536,40.39909444477458]],[[-79.93035220786102,40.39871086689191],[-79.93153,40.3982497],[-79.9326793,40.3980393],[-79.9338286,40.3978289]]]}},{"type":"Feature","id":null,"properties":{},"geometry":{"type":"MultiLineString","coordinates":[[[-79.9378269,40.3971898],[-79.942185,40.3974243],[-79.945518,40.3985639],[-79.9487489,40.4012057],[-79.9505197,40.4036839],[-79.9512657,40.404728],[-79.95271218706618,40.40937840157412]],[[-79.95284725438731,40.41009220375166],[-79.9529191,40.4107166]]]}},{"type":"Feature","id":null,"properties":{},"geometry":{"type":"MultiLineString","coordinates":[[[-79.9185708,40.4107722],[-79.91872372392699,40.41062351610796]],[[-79.91904500548323,40.41031114254311],[-79.9195987,40.4097728]]]}},{"type":"Feature","id":null,"properties":{},"geometry":{"type":"LineString","coordinates":[[-79.9529191,40.4107166],[-79.9530527,40.4118776],[-79.9532001,40.4134593],[-79.9534392,40.4186155],[-79.9540128,40.4208736],[-79.9546424,40.4220023],[-79.955502,40.4235435],[-79.9575548,40.425704],[-79.960727,40.4283833]]}},{"type":"Feature","id":null,"properties":{},"geometry":{"type":"LineString","coordinates":[[-80.0207855,40.4255844],[-80.0208735,40.4257194],[-80.0211846,40.4259522],[-80.0215869,40.4259604],[-80.0220679,40.4260714],[-80.0227421,40.4262823],[-80.0230603,40.4263818],[-80.0242656,40.4269171],[-80.0248539,40.4273325],[-80.0249013,40.4273961],[-80.0250206,40.4277936],[-80.025287,40.4289433],[-80.0252991,40.4293579],[-80.0253593,40.4294448],[-80.0254197,40.4295321],[-80.0255167,40.4296722],[-80.0258198,40.4298661],[-80.0262701,40.4300929],[-80.0266906,40.4303029]]}},{"type":"Feature","id":null,"properties":{},"geometry":{"type":"LineString","coordinates":[[-80.0266906,40.4303029],[-80.0272498,40.4306133]]}},{"type":"Feature","id":null,"properties":{},"geometry":{"type":"LineString","coordinates":[[-79.960727,40.4283833],[-79.9641421,40.4304667],[-79.9681283,40.4319907],[-79.9730111,40.4330643],[-79.9735597,40.4331549]]}},{"type":"Feature","id":null,"properties":{},"geometry":{"type":"LineString","coordinates":[[-79.9735597,40.4331549],[-79.9777624,40.4338488],[-79.9814987,40.4335514],[-79.9877483,40.4327394],[-79.9913534,40.4325863],[-79.9946946,40.4327395],[-79.9965623,40.433113]]}},{"type":"Feature","id":null,"properties":{},"geometry":{"type":"LineString","coordinates":[[-79.9149288,40.4135775],[-79.9169476,40.4123602],[-79.9185708,40.4107722]]}},{"type":"Feature","id":null,"properties":{},"geometry":{"type":"LineString","coordinates":[[-79.9155389,40.4149857],[-79.9149288,40.4135775]]}},{"type":"Feature","id":null,"properties":{},"geometry":{"type":"LineString","coordinates":[[-79.9060282,40.4159008],[-79.9097732,40.4154231],[-79.9128574,40.4145536],[-79.9149288,40.4135775]]}},{"type":"Feature","id":null,"properties":{},"geometry":{"type":"LineString","coordinates":[[-79.9157024,40.4151559],[-79.9155389,40.4149857]]}},{"type":"Feature","id":null,"properties":{},"geometry":{"type":"LineString","coordinates":[[-79.89953933193372,40.41583282311805],[-79.9032773,40.4162517],[-79.9060282,40.4159008]]}},{"type":"Feature","id":null,"properties":{},"geometry":{"type":"LineString","coordinates":[[-79.9083231,40.424033],[-79.9085942,40.423922],[-79.9086992,40.4238643],[-79.9088216,40.4237245],[-79.9089877,40.4235049],[-79.9093871,40.423081],[-79.9100179,40.4222824],[-79.9104229,40.4217867],[-79.9108095,40.4212792],[-79.9114828,40.4203827],[-79.9117656,40.4200254],[-79.9119434,40.41991],[-79.9124954,40.4197525],[-79.9128149,40.4195976],[-79.9135262,40.4193974],[-79.9138748,40.4193144],[-79.9140275,40.4192603],[-79.914143,40.4191695],[-79.914206,40.4190689],[-79.9141796,40.4190082],[-79.9142362,40.4188689],[-79.9144292,40.4187001],[-79.9146408,40.4185554],[-79.914934,40.4183588],[-79.9153334,40.4181369],[-79.9154325,40.4179061],[-79.9155112,40.4176753],[-79.9156231,40.4171703],[-79.9157006,40.4170406],[-79.9158352,40.4169004],[-79.9163069,40.4167166],[-79.9164352,40.416599],[-79.9164731,40.4165013],[-79.9166625,40.4160819],[-79.9167442,40.4158045],[-79.9167582,40.4157618],[-79.9167521,40.4157115],[-79.9167005,40.415605],[-79.9166713,40.4155617],[-79.9165098,40.4154993],[-79.9160166,40.4153192],[-79.9157024,40.4151559]]}},{"type":"Feature","id":null,"properties":{},"geometry":{"type":"LineString","coordinates":[[-79.9070902,40.4246321],[-79.9072068,40.4245677],[-79.9073438,40.4245345],[-79.9076032,40.4245367],[-79.9078947,40.424499],[-79.9080142,40.4244568],[-79.9081016,40.4243525],[-79.9081891,40.4242016],[-79.9083231,40.424033]]}},{"type":"Feature","id":null,"properties":{},"geometry":{"type":"LineString","coordinates":[[-79.9070223,40.4248703],[-79.9070902,40.4246321]]}},{"type":"Feature","id":null,"properties":{},"geometry":{"type":"LineString","coordinates":[[-79.9070668,40.4256728],[-79.9070231,40.4251558],[-79.9070173,40.4249783],[-79.9070223,40.4248703]]}},{"type":"Feature","id":null,"properties":{},"geometry":{"type":"LineString","coordinates":[[-79.9062711,40.4260817],[-79.9065451,40.4260411],[-79.9068191,40.4259169],[-79.9069299,40.4258525],[-79.9070668,40.4256728]]}},{"type":"Feature","id":null,"properties":{},"geometry":{"type":"LineString","coordinates":[[-79.9059955,40.4261498],[-79.9062711,40.4260817]]}},{"type":"Feature","id":null,"properties":{},"geometry":{"type":"LineString","coordinates":[[-79.9014536,40.4274041],[-79.9014871,40.4273596],[-79.901589,40.4272396],[-79.9016228,40.4272206],[-79.9017231,40.4271641],[-79.9018324,40.4270635],[-79.9019999,40.4269562],[-79.9021087,40.4268998],[-79.9024004,40.4267762],[-79.9027645,40.426658],[-79.9028584,40.4266322],[-79.9029214,40.4266286],[-79.9030159,40.426646],[-79.9031541,40.4266511],[-79.9033276,40.4266323],[-79.9034143,40.4266123],[-79.9035107,40.4265738],[-79.9036047,40.4264985],[-79.9036827,40.4264095],[-79.9037361,40.4263305],[-79.9037993,40.4262608],[-79.903948,40.426192],[-79.9040879,40.4261609],[-79.9043181,40.4261343],[-79.9044347,40.4261476],[-79.9047341,40.4262183],[-79.9048218,40.4262586],[-79.9049804,40.4263217],[-79.9051362,40.4263672],[-79.9052946,40.4263984],[-79.9054898,40.4263857],[-79.9056583,40.4263218],[-79.9058041,40.4262609],[-79.9059955,40.4261498]]}},{"type":"Feature","id":null,"properties":{},"geometry":{"type":"LineString","coordinates":[[-79.8980629,40.4266336],[-79.8983165,40.4265781],[-79.898538,40.4265848],[-79.8986779,40.4266447],[-79.8988528,40.4267933],[-79.8990831,40.427084],[-79.899173,40.4272089],[-79.8991878,40.4272293],[-79.8993483,40.4274523],[-79.8994912,40.4275611],[-79.8995903,40.4275899],[-79.9002665,40.4275611],[-79.9004152,40.4275943],[-79.9005091,40.4276559],[-79.9006046,40.4277186],[-79.9008087,40.4278118],[-79.900969,40.4278096],[-79.9011847,40.4277386],[-79.9013013,40.4276321],[-79.9013328,40.4276044],[-79.9014536,40.4274041]]}},{"type":"Feature","id":null,"properties":{},"geometry":{"type":"LineString","coordinates":[[-79.8923789,40.4279072],[-79.8925013,40.4277474],[-79.8927899,40.4273303],[-79.8930814,40.426993],[-79.8933904,40.4268066],[-79.8936527,40.426689],[-79.8938429,40.4266244],[-79.8941162,40.4265614],[-79.8943819,40.4265204],[-79.8946496,40.4264871],[-79.894889,40.4264904],[-79.8950062,40.4265015],[-79.8951449,40.4265291],[-79.8952826,40.426552],[-79.8954388,40.4266014],[-79.8955574,40.426646],[-79.8957935,40.4267963],[-79.8958455,40.4268292],[-79.8959027,40.4268844],[-79.8960021,40.4269087],[-79.8960891,40.4269104],[-79.8961354,40.4268966],[-79.8961792,40.4268703],[-79.8962186,40.4268563],[-79.8962642,40.4268558],[-79.8963775,40.4268328],[-79.8965209,40.4267356],[-79.8967745,40.4265759],[-79.8969698,40.4265337],[-79.8971156,40.4265492],[-79.8975003,40.4266824],[-79.8976577,40.4267201],[-79.8980629,40.4266336]]}},{"type":"Feature","id":null,"properties":{},"geometry":{"type":"LineString","coordinates":[[-79.88820093301224,40.483928909134136],[-79.888478,40.483956]]}},{"type":"Feature","id":null,"properties":{},"geometry":{"type":"LineString","coordinates":[[-79.888478,40.483956],[-79.8971474,40.4847679],[-79.9018622,40.4858958]]}},{"type":"Feature","id":null,"properties":{},"geometry":{"type":"LineString","coordinates":[[-79.9018622,40.4858958],[-79.9055291,40.4866964]]}},{"type":"Feature","id":null,"properties":{},"geometry":{"type":"LineString","coordinates":[[-79.9055291,40.4866964],[-79.908632,40.487361]]}},{"type":"Feature","id":null,"properties":{},"geometry":{"type":"LineString","coordinates":[[-79.908632,40.487361],[-79.9129023,40.4871373]]}},{"type":"Feature","id":null,"properties":{},"geometry":{"type":"LineString","coordinates":[[-79.9129023,40.4871373],[-79.914945,40.487576]]}},{"type":"Feature","id":null,"properties":{},"geometry":{"type":"LineString","coordinates":[[-79.9965623,40.433113],[-79.9987537,40.4335513],[-80.0032863,40.4353102],[-80.0098127,40.4382463],[-80.0135691,40.4403163],[-80.0143466,40.4409074],[-80.0158557,40.4420546],[-80.0171244,40.4430066]]}},{"type":"Feature","id":null,"properties":{},"geometry":{"type":"LineString","coordinates":[[-79.9963227,40.4479056],[-79.9979352,40.4472657],[-79.9996603,40.4466796],[-80.0034342,40.4455317],[-80.0090302,40.4442405],[-80.0118268,40.4436423],[-80.0137183,40.4433547],[-80.0146419,40.4432142],[-80.0171244,40.4430066]]}},{"type":"Feature","id":null,"properties":{},"geometry":{"type":"LineString","coordinates":[[-79.9907137,40.4515236],[-79.992368,40.4502368],[-79.9963227,40.4479056]]}},{"type":"Feature","id":null,"properties":{},"geometry":{"type":"LineString","coordinates":[[-79.9734781,40.4656009],[-79.9744433,40.4641285],[-79.9768541,40.4617458],[-79.9797434,40.459718],[-79.9823129,40.4581067],[-79.9844951,40.4563597],[-79.9907137,40.4515236]]}},{"type":"Feature","id":null,"properties":{},"geometry":{"type":"LineString","coordinates":[[-79.9744954,40.469259],[-79.9754022,40.4685776],[-79.9760608,40.4679729],[-79.9770056,40.46695],[-79.977955,40.4658926],[-79.9785863,40.4649457],[-79.9792086,40.4638502],[-79.9798945,40.4627996],[-79.9808121,40.4614691],[-79.9814616,40.4605325],[-79.9819204,40.459513],[-79.9823129,40.4581067]]}},{"type":"Feature","id":null,"properties":{},"geometry":{"type":"LineString","coordinates":[[-79.9699103,40.4710435],[-79.9734781,40.4656009]]}},{"type":"Feature","id":null,"properties":{},"geometry":{"type":"MultiLineString","coordinates":[[[-79.9699103,40.4710435],[-79.97024681012992,40.4709782263222]],[[-79.97284618748441,40.47034167718628],[-79.97339918836853,40.4700861986218]],[[-79.97417366538737,40.4695484294728],[-79.9744954,40.469259]]]}},{"type":"Feature","id":null,"properties":{},"geometry":{"type":"LineString","coordinates":[[-79.96952162734742,40.471618109895786],[-79.9699103,40.4710435]]}},{"type":"Feature","id":null,"properties":{},"geometry":{"type":"MultiLineString","coordinates":[[[-79.9646649,40.4778551],[-79.9653393,40.4770426],[-79.96537102337,40.47700497871876]],[[-79.96718155537482,40.474744957986715],[-79.96815465914733,40.47352415733238]]]}},{"type":"Feature","id":null,"properties":{},"geometry":{"type":"LineString","coordinates":[[-79.9606905,40.4819688],[-79.9626836,40.4801924],[-79.9646649,40.4778551]]}},{"type":"Feature","id":null,"properties":{},"geometry":{"type":"LineString","coordinates":[[-80.0275536,40.4447415],[-80.0267005,40.4461865]]}},{"type":"Feature","id":null,"properties":{},"geometry":{"type":"LineString","coordinates":[[-80.0842075,40.4419563],[-80.0851483,40.4432056],[-80.0855371,40.4436024],[-80.0888394,40.4472456],[-80.0892171,40.4477967],[-80.0894231,40.4483887],[-80.089577,40.4490582],[-80.0896227,40.4492641],[-80.0895688,40.4497895]]}},{"type":"Feature","id":null,"properties":{},"geometry":{"type":"MultiLineString","coordinates":[[[-80.0895688,40.4497895],[-80.08956975113784,40.449807185650094]],[[-80.08954635991127,40.45046810387578],[-80.0895432,40.4505049],[-80.08968752230341,40.45066606261728]],[[-80.09086151983473,40.4514220947408],[-80.0909423,40.4514377],[-80.0911607,40.4514513],[-80.0914183,40.4513925],[-80.0916826,40.4512971],[-80.0926817,40.4508259],[-80.093603,40.4508053],[-80.0942038,40.4510601],[-80.09459345611755,40.45169451681022]],[[-80.09463146541798,40.45184236180966],[-80.0946188,40.4525312]]]}},{"type":"Feature","id":null,"properties":{},"geometry":{"type":"LineString","coordinates":[[-80.0946188,40.4525312],[-80.0945128,40.4536922],[-80.0947274,40.4543583],[-80.09476352685661,40.45447945512551]]}},{"type":"Feature","id":null,"properties":{},"geometry":{"type":"LineString","coordinates":[[-80.0171244,40.4430066],[-80.0188649,40.4434818],[-80.0241006,40.4451148],[-80.0267005,40.4461865],[-80.0282205,40.4468131],[-80.0321687,40.4494911],[-80.0337148,40.4509618],[-80.0349152,40.4521036],[-80.0358594,40.4536058],[-80.0359145,40.4539272],[-80.0363744,40.4566101],[-80.0364929,40.4573054],[-80.0369752,40.4601366],[-80.0385201,40.46301],[-80.0407517,40.4655567],[-80.04367,40.4688216],[-80.0457299,40.4717599],[-80.0466273,40.4735268]]}},{"type":"Feature","id":null,"properties":{},"geometry":{"type":"LineString","coordinates":[[-80.0358594,40.4536058],[-80.0387635,40.4547296],[-80.0468851,40.4617287],[-80.0494904,40.4635558],[-80.0502763,40.46494],[-80.0506523,40.4665396]]}},{"type":"Feature","id":null,"properties":{},"geometry":{"type":"LineString","coordinates":[[-80.08037858434531,40.46222773496986],[-80.0802048,40.4623127],[-80.0796937,40.4629068]]}},{"type":"Feature","id":null,"properties":{},"geometry":{"type":"MultiLineString","coordinates":[[[-80.06918348588871,40.46080898088654],[-80.0689696,40.4607715],[-80.06885345155898,40.460791655345204]],[[-80.06488817556904,40.46226696242093],[-80.0640429,40.4625869],[-80.06366377965543,40.46275054352288]],[[-80.06230668976225,40.463336317866464],[-80.0616826,40.4636057],[-80.0609015,40.4641085],[-80.0602149,40.464115],[-80.0594596,40.4639126],[-80.05934492846858,40.46387212202368]],[[-80.05586634578508,40.46422832392866],[-80.053975,40.4647941],[-80.05372119072312,40.464870008016]]]}},{"type":"Feature","id":null,"properties":{},"geometry":{"type":"LineString","coordinates":[[-80.0796937,40.4629068],[-80.0796984,40.4635599],[-80.07970401243216,40.463585255892134]]}},{"type":"Feature","id":null,"properties":{},"geometry":{"type":"LineString","coordinates":[[-80.05112872605763,40.46618246604765],[-80.0506523,40.4665396]]}},{"type":"Feature","id":null,"properties":{},"geometry":{"type":"MultiLineString","coordinates":[[[-80.0506523,40.4665396],[-80.0508585,40.4675754],[-80.05004014244926,40.469535107313426]],[[-80.04693816299829,40.47312612751188],[-80.0466273,40.4735268]]]}},{"type":"Feature","id":null,"properties":{},"geometry":{"type":"LineString","coordinates":[[-80.0466273,40.4735268],[-80.0479601,40.4763896]]}},{"type":"Feature","id":null,"properties":{},"geometry":{"type":"LineString","coordinates":[[-80.0479601,40.4763896],[-80.0489915,40.4782236],[-80.0504344,40.4800237],[-80.0511372,40.4809004],[-80.0529811,40.4822576]]}},{"type":"Feature","id":null,"properties":{},"geometry":{"type":"LineString","coordinates":[[-80.0529811,40.4822576],[-80.05302802940281,40.48228586115597]]}},{"type":"Feature","id":null,"properties":{},"geometry":{"type":"LineString","coordinates":[[-79.9510566,40.4874974],[-79.9559328,40.4852256],[-79.9593553,40.4831587],[-79.9606905,40.4819688]]}},{"type":"Feature","id":null,"properties":{},"geometry":{"type":"LineString","coordinates":[[-79.95109013714388,40.48764345619015],[-79.9510566,40.4874974]]}},{"type":"Feature","id":null,"properties":{},"geometry":{"type":"MultiLineString","coordinates":[[[-79.93992416673244,40.490689620718435],[-79.94367954503268,40.48971086992758]],[[-79.94479319355003,40.489393476011294],[-79.9510566,40.4874974]]]}},{"type":"Feature","id":null,"properties":{},"geometry":{"type":"MultiLineString","coordinates":[[[-79.9201617,40.4898248],[-79.920730213548,40.489973309518476]],[[-79.9216696850902,40.49021872225639],[-79.92360548166901,40.49072439924298]],[[-79.9268992506642,40.491329166365986],[-79.9305396,40.4915443],[-79.9349457,40.4915286],[-79.93667651668159,40.491321846244745]]]}},{"type":"Feature","id":null,"properties":{},"geometry":{"type":"LineString","coordinates":[[-79.914945,40.487576],[-79.9162944,40.487956]]}},{"type":"Feature","id":null,"properties":{},"geometry":{"type":"LineString","coordinates":[[-79.908632,40.487361],[-79.90888972789736,40.48752418083442]]}},{"type":"Feature","id":null,"properties":{},"geometry":{"type":"LineString","coordinates":[[-79.9162944,40.487956],[-79.9168836,40.4881238],[-79.9179165,40.488418],[-79.9201617,40.4898248]]}},{"type":"Feature","id":null,"properties":{},"geometry":{"type":"LineString","coordinates":[[-79.92005092065102,40.489834045013694],[-79.9201617,40.4898248]]}}]}